ORBCOMM FM115           
1 41186U 15081H   26001.82261478  .00001680  00000+0  35877-3 0  9999
2 41186  46.9967 174.5400 0001442 252.7960 107.2770 14.62965372536852
ORBCOMM FM108           
1 41187U 15081J   26001.71475873  .00001758  00000+0  41013-3 0  9999
2 41187  47.0040 249.1236 0002175 152.5020 207.5981 14.58609497535777
ORBCOMM FM117           
1 41188U 15081K   26001.68025203  .00001701  00000+0  39792-3 0  9993
2 41188  47.0006 247.9753 0002567 159.6375 200.4614 14.58633633535815
ORBCOMM FM116           
1 41189U 15081L   26001.31817013  .00002076  00000+0  47765-3 0  9997
2 41189  47.0036 339.4594 0002182 336.4781  23.6005 14.58629019534572
